start=new Date('2021-09-09T00:00:00.000Z').valueOf();
sats=[{"MEAN_ANOMALY":"240.0867","MEAN_MOTION":"15.06411591","LAUNCH_DATE":"2021-03-04","APOAPSIS":"548.001","NORAD_CAT_ID":"47726","MEAN_ELEMENT_THEORY":"SGP4","DECAY_DATE":null,"COUNTRY_CODE":"US","GP_ID":"184347548","ECCENTRICITY":"0.00011890","OBJECT_ID":"2021-017E","TLE_LINE2":"2 47726  53.0570  16.6028 0001189 120.0240 240.0867 15.06411591 30248","MEAN_MOTION_DOT":"-0.00000199","SITE":"AFETR","MEAN_MOTION_DDOT":"0.0000000000000","PERIAPSIS":"546.355","OBJECT_TYPE":"PAYLOAD","REV_AT_EPOCH":"3024","SEMIMAJOR_AXIS":"6925.313","CLASSIFICATION_TYPE":"U","EPHEMERIS_TYPE":"0","TLE_LINE1":"1 47726U 21017E   21251.84909103 -.00000199  00000-0  55453-5 0  9999","BSTAR":"0.00000554530000","RCS_SIZE":"LARGE","EPOCH":"2021-09-08T20:22:41.464992","OBJECT_NAME":"STARLINK-2126","TIME_SYSTEM":"UTC","INCLINATION":"53.0570","PERIOD":"95.591","ELEMENT_SET_NO":"999","REF_FRAME":"TEME","FILE":"3111252","ARG_OF_PERICENTER":"120.0240","CENTER_NAME":"EARTH","RA_OF_ASC_NODE":"16.6028"},{"PERIAPSIS":"346.171","OBJECT_TYPE":"PAYLOAD","MEAN_MOTION_DDOT":"0.0000000000000","TLE_LINE2":"2 47727  53.0438 328.1835 0005192 349.2296  10.8610 15.73233873 30948","SITE":"AFETR","MEAN_MOTION_DOT":"0.00017703","SEMIMAJOR_AXIS":"6727.799","CLASSIFICATION_TYPE":"U","REV_AT_EPOCH":"3094","LAUNCH_DATE":"2021-03-04","MEAN_ANOMALY":"10.8610","MEAN_MOTION":"15.73233873","ECCENTRICITY":"0.00051920","GP_ID":"184347798","OBJECT_ID":"2021-017F","DECAY_DATE":null,"MEAN_ELEMENT_THEORY":"SGP4","APOAPSIS":"353.157","NORAD_CAT_ID":"47727","COUNTRY_CODE":"US","REF_FRAME":"TEME","INCLINATION":"53.0438","ELEMENT_SET_NO":"999","PERIOD":"91.531","RA_OF_ASC_NODE":"328.1835","CENTER_NAME":"EARTH","ARG_OF_PERICENTER":"349.2296","FILE":"3111252","TLE_LINE1":"1 47727U 21017F   21251.67033011  .00017703  00000-0  13003-3 0  9998","RCS_SIZE":"LARGE","BSTAR":"0.00013003000000","EPHEMERIS_TYPE":"0","OBJECT_NAME":"STARLINK-2129","EPOCH":"2021-09-08T16:05:16.521504","TIME_SYSTEM":"UTC"},{"MEAN_MOTION_DOT":"0.00001262","TLE_LINE2":"2 47728  53.0582  17.0205 0001476 119.5696 240.5440 15.06399607 30292","SITE":"AFETR","MEAN_MOTION_DDOT":"0.0000000000000","PERIAPSIS":"546.193","OBJECT_TYPE":"PAYLOAD","REV_AT_EPOCH":"3029","CLASSIFICATION_TYPE":"U","SEMIMAJOR_AXIS":"6925.350","MEAN_ANOMALY":"240.5440","MEAN_MOTION":"15.06399607","LAUNCH_DATE":"2021-03-04","APOAPSIS":"548.237","NORAD_CAT_ID":"47728","DECAY_DATE":null,"MEAN_ELEMENT_THEORY":"SGP4","COUNTRY_CODE":"US","GP_ID":"184349050","ECCENTRICITY":"0.00014760","OBJECT_ID":"2021-017G","INCLINATION":"53.0582","PERIOD":"95.592","ELEMENT_SET_NO":"999","REF_FRAME":"TEME","FILE":"3111252","ARG_OF_PERICENTER":"119.5696","RA_OF_ASC_NODE":"17.0205","CENTER_NAME":"EARTH","EPHEMERIS_TYPE":"0","BSTAR":"0.00010359000000","TLE_LINE1":"1 47728U 21017G   21251.75693949  .00001262  00000-0  10359-3 0  9994","RCS_SIZE":"LARGE","EPOCH":"2021-09-08T18:09:59.571936","OBJECT_NAME":"STARLINK-2131","TIME_SYSTEM":"UTC"},{"COUNTRY_CODE":"US","NORAD_CAT_ID":"47729","APOAPSIS":"371.667","MEAN_ELEMENT_THEORY":"SGP4","DECAY_DATE":null,"OBJECT_ID":"2021-017H","GP_ID":"184348800","ECCENTRICITY":"0.00026060","MEAN_MOTION":"15.66159425","MEAN_ANOMALY":"346.0202","LAUNCH_DATE":"2021-03-04","REV_AT_EPOCH":"3092","CLASSIFICATION_TYPE":"U","SEMIMAJOR_AXIS":"6748.043","TLE_LINE2":"2 47729  53.0438 327.6200 0002606  14.0885 346.0202 15.66159425 30929","MEAN_MOTION_DOT":"-0.00425733","SITE":"AFETR","MEAN_MOTION_DDOT":"0.0000000000000","OBJECT_TYPE":"PAYLOAD","PERIAPSIS":"368.150","TIME_SYSTEM":"UTC","EPOCH":"2021-09-08T19:21:56.533248","OBJECT_NAME":"STARLINK-2132","EPHEMERIS_TYPE":"0","TLE_LINE1":"1 47729U 21017H   21251.80690432 -.00425733  00000-0 -42695-2 0  9997","BSTAR":"-0.00426950000000","RCS_SIZE":"LARGE","FILE":"3111252","ARG_OF_PERICENTER":"14.0885","CENTER_NAME":"EARTH","RA_OF_ASC_NODE":"327.6200","PERIOD":"91.945","ELEMENT_SET_NO":"999","INCLINATION":"53.0438","REF_FRAME":"TEME"},{"REF_FRAME":"TEME","PERIOD":"95.593","ELEMENT_SET_NO":"999","INCLINATION":"53.0578","CENTER_NAME":"EARTH","RA_OF_ASC_NODE":"31.9249","FILE":"3111252","ARG_OF_PERICENTER":"102.6171","TLE_LINE1":"1 47730U 21017J   21251.77858048 -.00000634  00000-0 -23666-4 0  9992","RCS_SIZE":"LARGE","BSTAR":"-0.00002366600000","EPHEMERIS_TYPE":"0","TIME_SYSTEM":"UTC","EPOCH":"2021-09-08T18:41:09.353472","OBJECT_NAME":"STARLINK-2140","OBJECT_TYPE":"PAYLOAD","PERIAPSIS":"546.137","MEAN_MOTION_DOT":"-0.00000634","TLE_LINE2":"2 47730  53.0578  31.9249 0001587 102.6171 257.4995 15.06392626 30035","SITE":"AFETR","MEAN_MOTION_DDOT":"0.0000000000000","REV_AT_EPOCH":"3003","CLASSIFICATION_TYPE":"U","SEMIMAJOR_AXIS":"6925.371","LAUNCH_DATE":"2021-03-04","MEAN_MOTION":"15.06392626","MEAN_ANOMALY":"257.4995","OBJECT_ID":"2021-017J","GP_ID":"184348049","ECCENTRICITY":"0.00015870","COUNTRY_CODE":"US","NORAD_CAT_ID":"47730","APOAPSIS":"548.335","MEAN_ELEMENT_THEORY":"SGP4","DECAY_DATE":null},{"INCLINATION":"53.0568","PERIOD":"95.592","ELEMENT_SET_NO":"999","REF_FRAME":"TEME","FILE":"3111252","ARG_OF_PERICENTER":"101.3540","CENTER_NAME":"EARTH","RA_OF_ASC_NODE":"27.1932","EPHEMERIS_TYPE":"0","RCS_SIZE":"LARGE","TLE_LINE1":"1 47731U 21017K   21251.71916389  .00001133  00000-0  94989-4 0  9999","BSTAR":"0.00009498900000","EPOCH":"2021-09-08T17:15:35.760096","OBJECT_NAME":"STARLINK-2141","TIME_SYSTEM":"UTC","TLE_LINE2":"2 47731  53.0568  27.1932 0001968 101.3540 258.7670 15.06394426 30102","MEAN_MOTION_DOT":"0.00001133","SITE":"AFETR","MEAN_MOTION_DDOT":"0.0000000000000","PERIAPSIS":"545.868","OBJECT_TYPE":"PAYLOAD","REV_AT_EPOCH":"3010","SEMIMAJOR_AXIS":"6925.366","CLASSIFICATION_TYPE":"U","MEAN_ANOMALY":"258.7670","MEAN_MOTION":"15.06394426","LAUNCH_DATE":"2021-03-04","NORAD_CAT_ID":"47731","APOAPSIS":"548.594","DECAY_DATE":null,"MEAN_ELEMENT_THEORY":"SGP4","COUNTRY_CODE":"US","GP_ID":"184348299","ECCENTRICITY":"0.00019680","OBJECT_ID":"2021-017K"},{"CENTER_NAME":"EARTH","RA_OF_ASC_NODE":"328.4960","ARG_OF_PERICENTER":"351.8659","FILE":"3111252","REF_FRAME":"TEME","INCLINATION":"53.0441","ELEMENT_SET_NO":"999","PERIOD":"91.531","OBJECT_NAME":"STARLINK-2142","EPOCH":"2021-09-08T14:33:27.929664","TIME_SYSTEM":"UTC","TLE_LINE1":"1 47732U 21017L   21251.60657326  .00007742  00000-0  59446-4 0  9992","BSTAR":"0.00005944600000","RCS_SIZE":"LARGE","EPHEMERIS_TYPE":"0","CLASSIFICATION_TYPE":"U","SEMIMAJOR_AXIS":"6727.801","REV_AT_EPOCH":"3091","PERIAPSIS":"346.597","OBJECT_TYPE":"PAYLOAD","MEAN_MOTION_DDOT":"0.0000000000000","MEAN_MOTION_DOT":"0.00007742","TLE_LINE2":"2 47732  53.0441 328.4960 0004561 351.8659   8.2284 15.73233099 30916","SITE":"AFETR","ECCENTRICITY":"0.00045610","GP_ID":"184348550","OBJECT_ID":"2021-017L","DECAY_DATE":null,"MEAN_ELEMENT_THEORY":"SGP4","NORAD_CAT_ID":"47732","APOAPSIS":"352.734","COUNTRY_CODE":"US","LAUNCH_DATE":"2021-03-04","MEAN_ANOMALY":"8.2284","MEAN_MOTION":"15.73233099"},{"FILE":"3111252","ARG_OF_PERICENTER":"90.3204","RA_OF_ASC_NODE":"36.7446","CENTER_NAME":"EARTH","PERIOD":"95.592","ELEMENT_SET_NO":"999","INCLINATION":"53.0575","REF_FRAME":"TEME","TIME_SYSTEM":"UTC","EPOCH":"2021-09-08T20:09:25.399584","OBJECT_NAME":"STARLINK-2143","EPHEMERIS_TYPE":"0","TLE_LINE1":"1 47733U 21017M   21251.83987731  .00000241  00000-0  35095-4 0  9995","RCS_SIZE":"LARGE","BSTAR":"0.00003509500000","REV_AT_EPOCH":"3002","SEMIMAJOR_AXIS":"6925.365","CLASSIFICATION_TYPE":"U","TLE_LINE2":"2 47733  53.0575  36.7446 0001105  90.3204 269.7912 15.06394754 30021","SITE":"AFETR","MEAN_MOTION_DOT":"0.00000241","MEAN_MOTION_DDOT":"0.0000000000000","OBJECT_TYPE":"PAYLOAD","PERIAPSIS":"546.464","COUNTRY_CODE":"US","APOAPSIS":"547.995","NORAD_CAT_ID":"47733","DECAY_DATE":null,"MEAN_ELEMENT_THEORY":"SGP4","OBJECT_ID":"2021-017M","GP_ID":"184349301","ECCENTRICITY":"0.00011050","MEAN_MOTION":"15.06394754","MEAN_ANOMALY":"269.7912","LAUNCH_DATE":"2021-03-04"},{"TIME_SYSTEM":"UTC","OBJECT_NAME":"STARLINK-2144","EPOCH":"2021-09-08T17:26:12.509952","TLE_LINE1":"1 47734U 21017N   21251.72653368 -.00000383  00000-0 -68200-5 0  9994","RCS_SIZE":"LARGE","BSTAR":"-0.00000682000000","EPHEMERIS_TYPE":"0","CENTER_NAME":"EARTH","RA_OF_ASC_NODE":"27.1600","ARG_OF_PERICENTER":"82.3057","FILE":"3111252","REF_FRAME":"TEME","ELEMENT_SET_NO":"999","PERIOD":"95.593","INCLINATION":"53.0566","OBJECT_ID":"2021-017N","ECCENTRICITY":"0.00018590","GP_ID":"184347549","COUNTRY_CODE":"US","MEAN_ELEMENT_THEORY":"SGP4","DECAY_DATE":null,"NORAD_CAT_ID":"47734","APOAPSIS":"548.520","LAUNCH_DATE":"2021-03-04","MEAN_MOTION":"15.06393900","MEAN_ANOMALY":"277.8143","CLASSIFICATION_TYPE":"U","SEMIMAJOR_AXIS":"6925.367","REV_AT_EPOCH":"3011","OBJECT_TYPE":"PAYLOAD","PERIAPSIS":"545.945","MEAN_MOTION_DDOT":"0.0000000000000","TLE_LINE2":"2 47734  53.0566  27.1600 0001859  82.3057 277.8143 15.06393900 30119","SITE":"AFETR","MEAN_MOTION_DOT":"-0.00000383"},{"TLE_LINE2":"2 47735  53.0433 328.4944 0004336 347.8115  12.2797 15.73211105 30901","SITE":"AFETR","MEAN_MOTION_DOT":"0.00033189","MEAN_MOTION_DDOT":"0.0000000000000","OBJECT_TYPE":"PAYLOAD","PERIAPSIS":"346.811","REV_AT_EPOCH":"3090","CLASSIFICATION_TYPE":"U","SEMIMAJOR_AXIS":"6727.864","MEAN_MOTION":"15.73211105","MEAN_ANOMALY":"12.2797","LAUNCH_DATE":"2021-03-04","COUNTRY_CODE":"US","NORAD_CAT_ID":"47735","APOAPSIS":"352.646","DECAY_DATE":null,"MEAN_ELEMENT_THEORY":"SGP4","OBJECT_ID":"2021-017P","GP_ID":"184347799","ECCENTRICITY":"0.00043360","PERIOD":"91.533","ELEMENT_SET_NO":"999","INCLINATION":"53.0433","REF_FRAME":"TEME","FILE":"3111252","ARG_OF_PERICENTER":"347.8115","CENTER_NAME":"EARTH","RA_OF_ASC_NODE":"328.4944","EPHEMERIS_TYPE":"0","TLE_LINE1":"1 47735U 21017P   21251.60635070  .00033189  00000-0  23972-3 0  9995","BSTAR":"0.00023972000000","RCS_SIZE":"LARGE","TIME_SYSTEM":"UTC","EPOCH":"2021-09-08T14:33:08.700480","OBJECT_NAME":"STARLINK-2146"}];
